IRIDIUM 155             
1 43573U 18061E   24058.40044573 -.00000025  00000+0 -16006-4 0  9999
2 43573  86.3937  48.0482 0001852  91.6403 268.5005 14.34217037292848
IRIDIUM 154             
1 43574U 18061F   24058.59072325 -.00000008  00000+0 -10096-4 0  9990
2 43574  86.3941  48.0608 0002189  82.6125 277.5319 14.34217398292926
IRIDIUM 163             
1 43575U 18061G   24058.50192637  .00000058  00000+0  13471-4 0  9994
2 43575  86.3943  48.0394 0002172  85.8349 274.3095 14.34217914292881
IRIDIUM 156             
1 43576U 18061H   24058.68586102  .00000087  00000+0  23861-4 0  9994
2 43576  86.3943  47.9686 0002332  93.5426 266.6036 14.34218233292899
IRIDIUM 164             
1 43577U 18061J   24058.52729828  .00000014  00000+0 -18999-5 0  9990
2 43577  86.3946  48.0623 0002464  88.3834 271.7644 14.34217491292928
IRIDIUM 159             
1 43578U 18061K   24058.49558032  .00000211  00000+0  68332-4 0  9997
2 43578  86.3943  48.0300 0002200  85.4819 274.6628 14.34217442292882
IRIDIUM 180             
1 43922U 19002A   24058.84392242  .00000226  00000+0  73510-4 0  9994
2 43922  86.4024 344.7961 0002218  83.6682 276.4766 14.34218588268587
IRIDIUM 176             
1 43923U 19002B   24058.53440219  .00001697  00000+0  26514-3 0  9993
2 43923  86.6152 344.9535 0002640  88.4708 271.6811 14.72268862275568
IRIDIUM 168             
1 43924U 19002C   24058.48873632  .00000390  00000+0  13223-3 0  9999
2 43924  86.4028 344.9978 0002330  82.6185 277.5275 14.34216022268471
IRIDIUM 173             
1 43925U 19002D   24058.54581334  .00000412  00000+0  14004-3 0  9995
2 43925  86.4024 344.8975 0002147  82.0991 278.0449 14.34217527268468
IRIDIUM 169             
1 43926U 19002E   24058.80991311  .00000556  00000+0  17526-3 0  9996
2 43926  86.4263  16.3758 0001354 171.0130 189.1093 14.38605085269403
IRIDIUM 172             
1 43927U 19002F   24058.81855194  .00000457  00000+0  15598-3 0  9993
2 43927  86.4023 344.7890 0002293  83.7899 276.3558 14.34219000268517
IRIDIUM 175             
1 43928U 19002G   24058.80040501  .00001586  00000+0  24747-3 0  9991
2 43928  86.1542 324.2360 0002287  85.1079 275.0399 14.72256284275597
IRIDIUM 171             
1 43929U 19002H   24058.52044961  .00000033  00000+0  46412-5 0  9996
2 43929  86.4033 345.1262 0002412  86.7106 273.4365 14.34216427268463
IRIDIUM 170             
1 43930U 19002J   24058.81245318  .00001683  00000+0  26292-3 0  9993
2 43930  86.6152 344.8422 0002666  89.7247 270.4276 14.72265600275615
IRIDIUM 167             
1 43931U 19002K   24058.79318217  .00000112  00000+0  33016-4 0  9999
2 43931  86.4025 344.8144 0002286  85.9184 274.2273 14.34218148268502
IRIDIUM 181             
1 56726U 23068S   24058.40858323  .00000637  00000+0  18218-3 0  9995
2 56726  86.8638  33.2923 0002829  96.3445 263.8079 14.43595958 41150
IRIDIUM 177             
1 56727U 23068T   24057.81772323  .00000403  00000+0  49565-4 0  9996
2 56727  86.2015   8.2214 0002749  93.1358 267.0177 14.80223297 41901
IRIDIUM 174             
1 56728U 23068U   24058.82626236  .00002388  00000+0  31070-3 0  9995
2 56728  86.2030   7.8377 0002449  91.9710 268.1792 14.80240439 42058
IRIDIUM 178             
1 56729U 23068V   24058.41524197  .00002549  00000+0  33195-3 0  9993
2 56729  86.5816  20.2354 0002422  89.7753 270.3746 14.80244231 41991
IRIDIUM 179             
1 56730U 23068W   24058.61261614  .00002406  00000+0  31318-3 0  9996
2 56730  86.6821  22.8903 0002451  92.5708 267.5794 14.80239285 42021
